[Satellite]
VERSION=1.1
NAME=COSMOS 2084
NICKNAME=COSMOS 2084
TLE1=1 20663U 90055A   15054.67254137  .00001409  00000-0  15863-3 0  9996
TLE2=2 20663  62.7961 163.9803 0063244 354.0664   5.9671 14.90070688333883
